satname,norad_id,inclination_deg,eccentricity,mean_motion_rev_per_day,perigee_km,apogee_km,l1,l2
STARLINK-1404,45686,53.1597,0.0002974,15.39309804,446.118932598366,450.1792075528474,1 45686U 20035AF  26110.55794382  .00037256  00000+0  94632-3 0  9991,2 45686  53.1597 213.7606 0002974   4.4878 355.6153 15.39309804325403
STARLINK-1413,45689,53.1582,0.0001687,15.31016913,471.62124988449705,473.9327482677854,1 45689U 20035AJ  26110.56525916  .00029164  00000+0  96818-3 0  9997,2 45689  53.1582 215.0307 0001687  36.5129 323.5987 15.31016913325304
STARLINK-1417,45693,53.0505,0.0004453,15.14591944,519.1449333322971,525.2903891936176,1 45693U 20035AN  26110.59270912  .00014919  00000+0  81333-3 0  9996,2 45693  53.0505 224.0723 0004453   2.9294 357.1724 15.14591944325247
STARLINK-1420,45695,53.0471,0.0006652,15.62052122,377.2334801758034,386.2268074239155,1 45695U 20035AQ  26110.18332755  .00063961  00000+0  71754-3 0  9994,2 45695  53.0471 180.9295 0006652 332.3872  27.6787 15.62052122325825
STARLINK-1422,45696,53.1563,0.0001783,15.31203945,470.99769006801307,473.4405270563266,1 45696U 20035AR  26110.57114245  .00025838  00000+0  85455-3 0  9994,2 45696  53.1563 214.9872 0001783  20.3137 339.7935 15.31203945325386
STARLINK-1351,45697,53.0451,0.0007079,15.59483138,384.3613663594788,393.94249402684636,1 45697U 20035AS  26110.46033229  .00027653  00000+0  34745-3 0  9998,2 45697  53.0451 179.2804 0007079 336.0372  24.0310 15.59483138325871
STARLINK-1400,45700,53.0443,0.0005606,15.58162009,389.1807205348696,396.7724931108396,1 45700U 20035AV  26110.54414601  .00064604  00000+0  84077-3 0  9999,2 45700  53.0443 180.7731 0005606 300.9744  59.0716 15.58162009325856
STARLINK-1403,45701,53.1546,0.0001682,15.30117776,474.30781134221525,476.6133615702993,1 45701U 20035AW  26110.66668981  .00073399  00000+0  24722-2 0  9996,2 45701  53.1546 201.7346 0001682  27.1414 251.9226 15.30117776  5866
STARLINK-1407,45703,53.0296,0.0002979,15.66767721,366.1498784656342,370.16932198004724,1 45703U 20035AY  26110.29589302  .00035453  00000+0  33386-3 0  9992,2 45703  53.0296 111.7713 0002979 297.3906  62.6805 15.66767721326804
STARLINK-1411,45706,53.0375,0.0005964,15.71898289,349.45723912695485,357.48670230722655,1 45706U 20035BB  26110.34320931  .00085474  00000+0  64109-3 0  9997,2 45706  53.0375 136.3919 0005964  14.8890 345.2302 15.71898289326450
STARLINK-1423,45710,53.0429,0.0007661,15.64252221,370.21634041384004,380.56409481667106,1 45710U 20035BF  26110.66668981  .00026993  00000+0  28229-3 0  9991,2 45710  53.0429 178.3969 0007661 310.7821 250.2614 15.64252221  5945
STARLINK-1433,45711,53.0436,0.0007025,15.63293562,373.4046216520446,382.89720617109106,1 45711U 20035BG  26110.53875935  .00073891  00000+0  78788-3 0  9991,2 45711  53.0436 177.4639 0007025 315.7958  44.2494 15.63293562325896
STARLINK-1434,45712,53.051,0.0003162,15.30562785,471.96538528522524,476.2987602468438,1 45712U 20035BH  26110.47488660  .00016473  00000+0  56073-3 0  9996,2 45712  53.0510 185.8949 0003162 304.4871  55.5829 15.30562785325789
STARLINK-1465,45731,53.0485,0.0005386,15.56595546,393.869168205968,401.16790434964605,1 45731U 20038B   26110.46525573  .00039255  00000+0  54604-3 0  9995,2 45731  53.0485  21.6800 0005386  91.4350 268.7278 15.56595546322871
STARLINK-1471,45735,53.0452,0.0001883,15.51128646,412.15072497432357,414.7084289472068,1 45735U 20038F   26110.23334480  .00016506  00000+0  28536-3 0  9998,2 45735  53.0452 302.6352 0001883  63.8064 296.3138 15.51128646323978
STARLINK-1480,45741,53.0534,0.0002852,15.58424472,390.2854399124053,394.14724946021397,1 45741U 20038M   26110.14938293  .00026946  00000+0  35281-3 0  9991,2 45741  53.0534  17.1296 0002852 152.9998 207.1162 15.58424472322928
STARLINK-1500,45744,53.0368,0.0003466,15.36968747,452.7106255818053,457.4474109256598,1 45744U 20038Q   26110.38700374  .00012014  00000+0  33746-3 0  9992,2 45744  53.0368 356.8081 0003466  67.1539 292.9829 15.36968747323221
STARLINK-1504,45746,53.0242,9.49e-05,15.55952055,398.7433472477005,400.02972121449693,1 45746U 20038S   26109.95897049  .00028162  00000+0  40384-3 0  9998,2 45746  53.0242 302.6466 0000949  44.2007 315.9079 15.55952055323936
STARLINK-1506,45747,53.0785,0.0004225,15.27480663,480.4475860686716,486.24553967930024,1 45747U 20038T   26110.42510895  .00025606  00000+0  94911-3 0  9999,2 45747  53.0785   9.1506 0004225  49.4572 310.6794 15.27480663323068
STARLINK-1464,45751,53.0499,0.0003219,15.49056155,417.2977224482793,421.67403205665505,1 45751U 20038X   26109.99410711  .00042364  00000+0  77229-3 0  9993,2 45751  53.0499   7.4897 0003219  98.7291 261.4081 15.49056155323045
STARLINK-1477,45754,53.0527,0.0003488,15.1647328,514.1045768599388,518.9142822091826,1 45754U 20038AA  26110.44453127  .00014745  00000+0  76263-3 0  9995,2 45754  53.0527  22.8505 0003488 101.2375 258.9011 15.16473280322867
STARLINK-1478,45755,53.0479,0.0002748,15.62111569,379.70107808452667,383.4162068096148,1 45755U 20038AB  26110.11681157  .00063624  00000+0  71274-3 0  9993,2 45755  53.0479 356.4656 0002748 105.2805 254.8512 15.62111569323195
STARLINK-1493,45759,53.0504,0.0004606,15.57268613,392.4460907942521,398.68602605167143,1 45759U 20038AF  26110.57921748  .00062055  00000+0  83575-3 0  9994,2 45759  53.0504   2.3324 0004606 155.7553 204.3675 15.57268613323155
STARLINK-1494,45760,53.0458,0.0003489,15.83957078,316.9262396979975,321.5996853918614,1 45760U 20038AG  26109.96439031  .00145842  00000+0  63185-3 0  9997,2 45760  53.0458 304.9057 0003489 184.5624 175.5368 15.83957078323917
STARLINK-1502,45764,53.0521,0.0006654,15.53702905,401.41163199268794,410.4398626968541,1 45764U 20038AL  26110.26323588  .00046333  00000+0  71437-3 0  9999,2 45764  53.0521   6.4159 0006654 136.5443 223.6092 15.53702905323083
STARLINK-1470,45772,53.0462,0.0003048,15.31579105,469.01275307543165,473.1880481948592,1 45772U 20038AU  26110.35419192  .00020003  00000+0  65701-3 0  9998,2 45772  53.0462 340.3812 0003048 146.7068 213.4125 15.31579105323457
STARLINK-1482,45773,53.1591,0.0003309,15.33678314,462.5847400734974,467.1134282640005,1 45773U 20038AV  26110.11129848  .00030273  00000+0  92423-3 0  9990,2 45773  53.1591 358.1382 0003309 142.3648 217.7586 15.33678314323190
STARLINK-1496,45780,53.0512,8.36e-05,15.55248219,400.864411438758,401.9979552390114,1 45780U 20038BC  26110.05352050  .00065373  00000+0  94828-3 0  9994,2 45780  53.0512 338.7934 0000836 267.1150  92.9764 15.55248219323432
STARLINK-1513,45786,53.1618,0.0001409,15.31698328,469.77997190428323,471.70998684607184,1 45786U 20038BJ  26110.42148934 -.00000151  00000+0  68973-5 0  9993,2 45786  53.1618 357.2575 0001409  80.6302 279.4859 15.31698328323236
STARLINK-1522,46027,53.0615,0.0001833,15.10994896,531.8977215669138,534.4314047199614,1 46027U 20055A   26109.78294996  .00014805  00000+0  89216-3 0  9999,2 46027  53.0615 300.9982 0001833 173.7824 186.3190 15.10994896315097
STARLINK-1523,46028,53.1617,0.0001411,15.30188202,474.2832833995426,476.21730929457135,1 46028U 20055B   26109.80120410  .00000142  00000+0  16924-4 0  9998,2 46028  53.1617 295.7410 0001411  74.2753 285.8403 15.30188202315197
STARLINK-1526,46029,53.1627,0.0001319,15.3018933,474.3429669610259,476.15088964131155,1 46029U 20055C   26109.72956817  .00000330  00000+0  23278-4 0  9997,2 46029  53.1627 296.0846 0001319  82.8875 277.2276 15.30189330315177
STARLINK-1555,46032,53.1589,0.0001316,15.3018782,474.34953102679265,476.1533428633966,1 46032U 20055F   26110.23628182 -.00000108  00000+0  84813-5 0  9997,2 46032  53.1589 293.7156 0001316  91.8387 268.2765 15.30187820315255
STARLINK-1556,46033,53.16,0.0001026,15.30212952,474.4732474001448,475.8795473092814,1 46033U 20055G   26110.21942067 -.00006010  00000+0 -19087-3 0  9995,2 46033  53.1600 293.8078 0001026  82.7809 277.3309 15.30212952315227
STARLINK-1557,46034,53.1563,0.0001432,15.29360018,476.74249278471416,478.7060114473188,1 46034U 20055H   26110.21656817 -.00000780  00000+0 -14695-4 0  9990,2 46034  53.1563 293.7571 0001432  90.4696 269.6469 15.29360018315220
STARLINK-1558,46035,53.1603,0.000127,15.3019008,474.37430943675463,476.1150683857377,1 46035U 20055J   26110.49122268 -.00000708  00000+0 -11772-4 0  9992,2 46035  53.1603 292.5427 0001270  91.9390 268.1756 15.30190080315292
STARLINK-1560,46036,53.1566,0.0001126,15.29359891,476.9526616426065,478.4966016820563,1 46036U 20055K   26110.21334800  .00002427  00000+0  96393-4 0  9990,2 46036  53.1566 293.8120 0001126  88.6109 271.5020 15.29359891315259
STARLINK-1567,46038,53.0847,3.07e-05,15.92286992,295.67973782481204,296.08952275291176,1 46038U 20055M   26110.66668981  .00292326  43386-4  85713-3 0  9992,2 46038  53.0847 282.6689 0000307 247.3794  70.7365 15.92286992  2392
STARLINK-1569,46039,53.1578,0.0007618,15.31503081,466.10914169049374,476.5449851375115,1 46039U 20055N   26110.49317601  .00177325  00000+0  56226-2 0  9992,2 46039  53.1578 292.5121 0007618  43.2381 316.9218 15.31503081315284
STARLINK-1582,46043,53.1603,0.0001739,15.31708242,469.5244109257519,471.90644179964147,1 46043U 20055S   26110.55926171 -.00001561  00000+0 -38524-4 0  9995,2 46043  53.1603 292.1425 0001739  85.6657 274.4543 15.31708242315291
STARLINK-1591,46045,53.1596,0.0001012,15.30191464,474.5469946864632,475.9341183038978,1 46045U 20055U   26110.20046485 -.00000060  00000+0  10110-4 0  9993,2 46045  53.1596 293.8921 0001012  75.9611 284.1502 15.30191464315226
STARLINK-1524,46047,53.1598,0.0001256,15.30190117,474.3837937084736,476.1053631609766,1 46047U 20055W   26110.45588938 -.00000879  00000+0 -17567-4 0  9998,2 46047  53.1598 279.8381 0001256 102.6509 257.4632 15.30190117315465
STARLINK-1527,46048,53.161,0.0001063,15.31711532,469.97758717898614,471.4336511198171,1 46048U 20055X   26110.66668981 -.00021678  00000+0 -68857-3 0  9996,2 46048  53.1610 278.9201 0001063  73.8244 353.9261 15.31711532  5875
